COMMENT,ORIGINATOR,NORAD_CAT_ID,OBJECT_NAME,OBJECT_TYPE,CLASSIFICATION_TYPE,INTLDES,EPOCH,EPOCH_MICROSECONDS,MEAN_MOTION,ECCENTRICITY,INCLINATION,RA_OF_ASC_NODE,ARG_OF_PERICENTER,MEAN_ANOMALY,EPHEMERIS_TYPE,ELEMENT_SET_NO,REV_AT_EPOCH,BSTAR,MEAN_MOTION_DOT,MEAN_MOTION_DDOT,FILE,TLE_LINE0,TLE_LINE1,TLE_LINE2,OBJECT_ID,OBJECT_NUMBER,SEMIMAJOR_AXIS,PERIOD,APOGEE,PERIGEE,DECAYED
"GENERATED VIA SPACETRACK.ORG API","18 SPCS","48893","SPACEBEE-106","PAYLOAD","U","21059Q","2022-09-22 04:00:56","950848","15.17287394","0.0009676","97.5683","34.6067","128.6135","231.5966","0","999","6859","0.00044862","0.00008883","0","3580347","0 SPACEBEE-106","1 48893U 21059Q   22265.16732582  .00008883  00000-0  44862-3 0  9994","2 48893  97.5683  34.6067 0009676 128.6135 231.5966 15.17287394 68599","2021-059Q","48893","6892.180","94.906","520.714","507.376","0"
"GENERATED VIA SPACETRACK.ORG API","18 SPCS","48893","SPACEBEE-106","PAYLOAD","U","21059Q","2022-09-22 19:50:36","679488","15.17300115","0.0009716","97.5685","35.2656","126.3599","233.8532","0","999","6869","0.0004776","0.00009466","0","3580418","0 SPACEBEE-106","1 48893U 21059Q   22265.82681342  .00009466  00000-0  47760-3 0  9992","2 48893  97.5685  35.2656 0009716 126.3599 233.8532 15.17300115 68698","2021-059Q","48893","6892.141","94.905","520.703","507.310","0"
"GENERATED VIA SPACETRACK.ORG API","18 SPCS","48893","SPACEBEE-106","PAYLOAD","U","21059Q","2022-09-22 21:25:34","627296","15.17301864","0.0009711","97.5686","35.3314","126.2539","233.9593","0","999","6870","0.00049288","0.00009772","0","3580594","0 SPACEBEE-106","1 48893U 21059Q   22265.89276189  .00009772  00000-0  49288-3 0  9995","2 48893  97.5686  35.3314 0009711 126.2539 233.9593 15.17301864 68701","2021-059Q","48893","6892.136","94.905","520.694","507.308","0"
"GENERATED VIA SPACETRACK.ORG API","18 SPCS","48893","SPACEBEE-106","PAYLOAD","U","21059Q","2022-09-23 08:30:20","108160","15.17310601","0.0009717","97.5687","35.7925","124.6992","235.5158","0","999","6877","0.00049831","0.00009883","0","3581351","0 SPACEBEE-106","1 48893U 21059Q   22266.35439940  .00009883  00000-0  49831-3 0  9990","2 48893  97.5687  35.7925 0009717 124.6992 235.5158 15.17310601 68776","2021-059Q","48893","6892.110","94.905","520.672","507.278","0"
"GENERATED VIA SPACETRACK.ORG API","18 SPCS","48893","SPACEBEE-106","PAYLOAD","U","21059Q","2022-09-23 21:10:03","227520","15.17321907","0.000972","97.5689","36.3196","123.1035","237.1132","0","999","6885","0.00054212","0.00010763","0","3581681","0 SPACEBEE-106","1 48893U 21059Q   22266.88198180  .00010763  00000-0  54212-3 0  9994","2 48893  97.5689  36.3196 0009720 123.1035 237.1132 15.17321907 68851","2021-059Q","48893","6892.075","94.904","520.640","507.241","0"
"GENERATED VIA SPACETRACK.ORG API","18 SPCS","48893","SPACEBEE-106","PAYLOAD","U","21059Q","2022-09-23 21:10:03","227520","15.17321907","0.000972","97.5689","36.3196","123.1035","237.1132","0","999","6885","0.00054212","0.00010763","0","3581769","0 SPACEBEE-106","1 48893U 21059Q   22266.88198180  .00010763  00000-0  54212-3 0  9994","2 48893  97.5689  36.3196 0009720 123.1035 237.1132 15.17321907 68851","2021-059Q","48893","6892.075","94.904","520.640","507.241","0"
"GENERATED VIA SPACETRACK.ORG API","18 SPCS","48893","SPACEBEE-106","PAYLOAD","U","21059Q","2022-09-24 08:14:48","177024","15.17330927","0.0009713","97.5689","36.7807","121.7669","238.4512","0","999","6892","0.00053836","0.0001069","0","3582188","0 SPACEBEE-106","1 48893U 21059Q   22267.34361316  .00010690  00000-0  53836-3 0  9999","2 48893  97.5689  36.7807 0009713 121.7669 238.4512 15.17330927 68929","2021-059Q","48893","6892.048","94.903","520.607","507.219","0"
"GENERATED VIA SPACETRACK.ORG API","18 SPCS","48893","SPACEBEE-106","PAYLOAD","U","21059Q","2022-09-24 16:09:37","237824","15.17340062","0.0009716","97.569","37.1101","120.7616","239.4575","0","999","6897","0.00060288","0.00011985","0","3582616","0 SPACEBEE-106","1 48893U 21059Q   22267.67334766  .00011985  00000-0  60288-3 0  9991","2 48893  97.5690  37.1101 0009716 120.7616 239.4575 15.17340062 68973","2021-059Q","48893","6892.020","94.903","520.582","507.189","0"
"GENERATED VIA SPACETRACK.ORG API","18 SPCS","48893","SPACEBEE-106","PAYLOAD","U","21059Q","2022-09-24 22:29:28","372416","15.1734661","0.0009709","97.5691","37.3737","119.9695","240.2503","0","999","6901","0.00062628","0.00012456","0","3582818","0 SPACEBEE-106","1 48893U 21059Q   22267.93713394  .00012456  00000-0  62628-3 0  9992","2 48893  97.5691  37.3737 0009709 119.9695 240.2503 15.17346610 69012","2021-059Q","48893","6892.001","94.903","520.557","507.174","0"
"GENERATED VIA SPACETRACK.ORG API","18 SPCS","48893","SPACEBEE-106","PAYLOAD","U","21059Q","2022-09-25 07:59:14","926560","15.17354341","0.0009695","97.5692","37.769","118.8123","241.4085","0","999","6907","0.0005579","0.00011089","0","3583351","0 SPACEBEE-106","1 48893U 21059Q   22268.33281165  .00011089  00000-0  55790-3 0  9996","2 48893  97.5692  37.7690 0009695 118.8123 241.4085 15.17354341 69077","2021-059Q","48893","6891.977","94.902","520.524","507.160","0"
"GENERATED VIA SPACETRACK.ORG API","18 SPCS","48893","SPACEBEE-106","PAYLOAD","U","21059Q","2022-09-25 15:54:03","566592","15.17361533","0.0009646","97.5694","38.0985","117.538","242.6835","0","999","6912","0.00056578","0.00011249","0","3583828","0 SPACEBEE-106","1 48893U 21059Q   22268.66254128  .00011249  00000-0  56578-3 0  9994","2 48893  97.5694  38.0985 0009646 117.5380 242.6835 15.17361533 69120","2021-059Q","48893","6891.955","94.902","520.468","507.172","0"
"GENERATED VIA SPACETRACK.ORG API","18 SPCS","48893","SPACEBEE-106","PAYLOAD","U","21059Q","2022-09-26 06:08:42","803808","15.17373135","0.0009662","97.5696","38.6914","115.8402","244.3828","0","999","6921","0.00050832","0.00010101","0","3584214","0 SPACEBEE-106","1 48893U 21059Q   22269.25605097  .00010101  00000-0  50832-3 0  9998","2 48893  97.5696  38.6914 0009662 115.8402 244.3828 15.17373135 69216","2021-059Q","48893","6891.920","94.901","520.444","507.126","0"
"GENERATED VIA SPACETRACK.ORG API","18 SPCS","48893","SPACEBEE-106","PAYLOAD","U","21059Q","2022-09-26 07:43:40","457856","15.17374599","0.0009657","97.5696","38.7573","115.6666","244.5566","0","999","6922","0.00049683","0.00009871","0","3584345","0 SPACEBEE-106","1 48893U 21059Q   22269.32199604  .00009871  00000-0  49683-3 0  9992","2 48893  97.5696  38.7573 0009657 115.6666 244.5566 15.17374599 69229","2021-059Q","48893","6891.916","94.901","520.436","507.125","0"
"GENERATED VIA SPACETRACK.ORG API","18 SPCS","48893","SPACEBEE-106","PAYLOAD","U","21059Q","2022-09-27 07:28:04","798560","15.17400994","0.0009681","97.5701","39.7457","112.4153","247.8107","0","999","6937","0.00072142","0.00014384","0","3584923","0 SPACEBEE-106","1 48893U 21059Q   22270.31116665  .00014384  00000-0  72142-3 0  9990","2 48893  97.5701  39.7457 0009681 112.4153 247.8107 15.17400994 69373","2021-059Q","48893","6891.836","94.899","520.373","507.029","0"
"GENERATED VIA SPACETRACK.ORG API","18 SPCS","48893","SPACEBEE-106","PAYLOAD","U","21059Q","2022-09-27 07:28:04","798560","15.17400994","0.0009681","97.5701","39.7457","112.4153","247.8107","0","999","6937","0.00072142","0.00014384","0","3585092","0 SPACEBEE-106","1 48893U 21059Q   22270.31116665  .00014384  00000-0  72142-3 0  9990","2 48893  97.5701  39.7457 0009681 112.4153 247.8107 15.17400994 69373","2021-059Q","48893","6891.836","94.899","520.373","507.029","0"
"GENERATED VIA SPACETRACK.ORG API","18 SPCS","48893","SPACEBEE-106","PAYLOAD","U","21059Q","2022-09-28 08:47:25","32480","15.17429368","0.0009773","97.5704","40.8","109.3532","250.8758","0","999","6953","0.00067535","0.00013471","0","3585834","0 SPACEBEE-106","1 48893U 21059Q   22271.36626195  .00013471  00000-0  67535-3 0  9996","2 48893  97.5704  40.8000 0009773 109.3532 250.8758 15.17429368 69531","2021-059Q","48893","6891.750","94.897","520.350","506.880","0"
"GENERATED VIA SPACETRACK.ORG API","18 SPCS","48893","SPACEBEE-106","PAYLOAD","U","21059Q","2022-09-28 08:47:25","32480","15.17429368","0.0009773","97.5704","40.8","109.3532","250.8758","0","999","6953","0.00067535","0.00013471","0","3586039","0 SPACEBEE-106","1 48893U 21059Q   22271.36626195  .00013471  00000-0  67535-3 0  9996","2 48893  97.5704  40.8000 0009773 109.3532 250.8758 15.17429368 69531","2021-059Q","48893","6891.750","94.897","520.350","506.880","0"
"GENERATED VIA SPACETRACK.ORG API","18 SPCS","48893","SPACEBEE-106","PAYLOAD","U","21059Q","2022-09-29 08:31:46","286112","15.17451888","0.000982","97.5704","41.7887","106.0527","254.1789","0","999","6968","0.00054882","0.00010938","0","3586894","0 SPACEBEE-106","1 48893U 21059Q   22272.35539683  .00010938  00000-0  54882-3 0  9997","2 48893  97.5704  41.7887 0009820 106.0527 254.1789 15.17451888 69684","2021-059Q","48893","6891.682","94.896","520.314","506.779","0"
"GENERATED VIA SPACETRACK.ORG API","18 SPCS","48893","SPACEBEE-106","PAYLOAD","U","21059Q","2022-09-30 01:56:17","22048","15.17469379","0.0009806","97.5704","42.5137","103.933","256.2995","0","999","6979","0.00058382","0.00011646","0","3587222","0 SPACEBEE-106","1 48893U 21059Q   22273.08075257  .00011646  00000-0  58382-3 0  9996","2 48893  97.5704  42.5137 0009806 103.9330 256.2995 15.17469379 69791","2021-059Q","48893","6891.629","94.895","520.252","506.736","0"
"GENERATED VIA SPACETRACK.ORG API","18 SPCS","48893","SPACEBEE-106","PAYLOAD","U","21059Q","2022-09-30 08:16:06","201408","15.17476051","0.0009781","97.5704","42.7773","103.1299","257.1026","0","999","6983","0.00058421","0.00011656","0","3587752","0 SPACEBEE-106","1 48893U 21059Q   22273.34451622  .00011656  00000-0  58421-3 0  9994","2 48893  97.5704  42.7773 0009781 103.1299 257.1026 15.17476051 69832","2021-059Q","48893","6891.609","94.894","520.214","506.733","0"
